CCSDS_OMM_VERS = 2.0
CREATION_DATE  = 
ORIGINATOR     = 

OBJECT_NAME    = CZ-2C R/B
OBJECT_ID      = 2025-266D
CENTER_NAME    = EARTH
REF_FRAME      = TEME
TIME_SYSTEM    = UTC
MEAN_ELEMENT_THEORY = SGP/SGP4

EPOCH          = 2025-12-07T07:28:12.483840
MEAN_MOTION    = 15.30009880
ECCENTRICITY   = .00842761
INCLINATION    = 52.0567
RA_OF_ASC_NODE = 357.1384
ARG_OF_PERICENTER = 154.5442
MEAN_ANOMALY   = 205.9732

EPHEMERIS_TYPE = 0
CLASSIFICATION_TYPE = U
NORAD_CAT_ID   = 66548
ELEMENT_SET_NO = 999
REV_AT_EPOCH   = 278
BSTAR          = .53002711E-3
MEAN_MOTION_DOT = .17051E-3
MEAN_MOTION_DDOT = 0

CCSDS_OMM_VERS = 2.0
CREATION_DATE  = 
ORIGINATOR     = 

OBJECT_NAME    = SHIJIAN-28
OBJECT_ID      = 2025-277A
CENTER_NAME    = EARTH
REF_FRAME      = TEME
TIME_SYSTEM    = UTC
MEAN_ELEMENT_THEORY = SGP/SGP4

EPOCH          = 2025-11-30T18:06:43.124256
MEAN_MOTION    = 2.28019775
ECCENTRICITY   = .7300519
INCLINATION    = 14.4344
RA_OF_ASC_NODE = 275.4056
ARG_OF_PERICENTER = 179.5026
MEAN_ANOMALY   = 182.3580

EPHEMERIS_TYPE = 0
CLASSIFICATION_TYPE = U
NORAD_CAT_ID   = 66549
ELEMENT_SET_NO = 999
REV_AT_EPOCH   = 4
BSTAR          = .62085E-3
MEAN_MOTION_DOT = .6315E-4
MEAN_MOTION_DDOT = 0

CCSDS_OMM_VERS = 2.0
CREATION_DATE  = 
ORIGINATOR     = 

OBJECT_NAME    = CZ-7A R/B
OBJECT_ID      = 2025-277B
CENTER_NAME    = EARTH
REF_FRAME      = TEME
TIME_SYSTEM    = UTC
MEAN_ELEMENT_THEORY = SGP/SGP4

EPOCH          = 2025-12-06T11:25:58.783584
MEAN_MOTION    = 2.49148263
ECCENTRICITY   = .7169465
INCLINATION    = 14.4071
RA_OF_ASC_NODE = 272.9582
ARG_OF_PERICENTER = 183.2116
MEAN_ANOMALY   = 166.6906

EPHEMERIS_TYPE = 0
CLASSIFICATION_TYPE = U
NORAD_CAT_ID   = 66550
ELEMENT_SET_NO = 999
REV_AT_EPOCH   = 18
BSTAR          = .29638743E-2
MEAN_MOTION_DOT = .1473319E-1
MEAN_MOTION_DDOT = .1649722E-5

CCSDS_OMM_VERS = 2.0
CREATION_DATE  = 
ORIGINATOR     = 

OBJECT_NAME    = UNKNOWN
OBJECT_ID      = 2025-271AE
CENTER_NAME    = EARTH
REF_FRAME      = TEME
TIME_SYSTEM    = UTC
MEAN_ELEMENT_THEORY = SGP/SGP4

EPOCH          = 2025-12-02T16:00:03.000096
MEAN_MOTION    = 15.87051116
ECCENTRICITY   = .0000717
INCLINATION    = 53.1571
RA_OF_ASC_NODE = 236.7807
ARG_OF_PERICENTER = 110.7411
MEAN_ANOMALY   = 313.9012

EPHEMERIS_TYPE = 0
CLASSIFICATION_TYPE = U
NORAD_CAT_ID   = 66551
ELEMENT_SET_NO = 999
REV_AT_EPOCH   = 262
BSTAR          = -.74303E-2
MEAN_MOTION_DOT = -.1709685E-1
MEAN_MOTION_DDOT = 0

CCSDS_OMM_VERS = 2.0
CREATION_DATE  = 
ORIGINATOR     = 

OBJECT_NAME    = GLOBAL-33
OBJECT_ID      = 2025-267A
CENTER_NAME    = EARTH
REF_FRAME      = TEME
TIME_SYSTEM    = UTC
MEAN_ELEMENT_THEORY = SGP/SGP4

EPOCH          = 2025-12-07T07:35:19.627296
MEAN_MOTION    = 15.31453171
ECCENTRICITY   = .00049125
INCLINATION    = 42.0198
RA_OF_ASC_NODE = 88.3000
ARG_OF_PERICENTER = 13.8130
MEAN_ANOMALY   = 346.2841

EPHEMERIS_TYPE = 0
CLASSIFICATION_TYPE = U
NORAD_CAT_ID   = 66554
ELEMENT_SET_NO = 999
REV_AT_EPOCH   = 257
BSTAR          = .65572959E-3
MEAN_MOTION_DOT = .20158E-3
MEAN_MOTION_DDOT = 0

CCSDS_OMM_VERS = 2.0
CREATION_DATE  = 
ORIGINATOR     = 

OBJECT_NAME    = ELECTRON KICK STAGE R/B
OBJECT_ID      = 2025-267B
CENTER_NAME    = EARTH
REF_FRAME      = TEME
TIME_SYSTEM    = UTC
MEAN_ELEMENT_THEORY = SGP/SGP4

EPOCH          = 2025-12-06T14:11:19.744800
MEAN_MOTION    = 15.32375133
ECCENTRICITY   = .00070081
INCLINATION    = 42.0184
RA_OF_ASC_NODE = 92.3831
ARG_OF_PERICENTER = 7.6662
MEAN_ANOMALY   = 352.4282

EPHEMERIS_TYPE = 0
CLASSIFICATION_TYPE = U
NORAD_CAT_ID   = 66555
ELEMENT_SET_NO = 999
REV_AT_EPOCH   = 246
BSTAR          = .11819859E-2
MEAN_MOTION_DOT = .37718E-3
MEAN_MOTION_DDOT = 0

CCSDS_OMM_VERS = 2.0
CREATION_DATE  = 
ORIGINATOR     = 

OBJECT_NAME    = STARLINK-35699
OBJECT_ID      = 2025-268A
CENTER_NAME    = EARTH
REF_FRAME      = TEME
TIME_SYSTEM    = UTC
MEAN_ELEMENT_THEORY = SGP/SGP4

EPOCH          = 2025-12-07T06:00:04.999968
MEAN_MOTION    = 15.59236222
ECCENTRICITY   = .00017894
INCLINATION    = 42.9999
RA_OF_ASC_NODE = 153.3756
ARG_OF_PERICENTER = 270.6458
MEAN_ANOMALY   = 77.1424

EPHEMERIS_TYPE = 0
CLASSIFICATION_TYPE = U
NORAD_CAT_ID   = 66557
ELEMENT_SET_NO = 999
REV_AT_EPOCH   = 378
BSTAR          = -.28661304E-1
MEAN_MOTION_DOT = -.2025772E-1
MEAN_MOTION_DDOT = 0

CCSDS_OMM_VERS = 2.0
CREATION_DATE  = 
ORIGINATOR     = 

OBJECT_NAME    = STARLINK-35695
OBJECT_ID      = 2025-268B
CENTER_NAME    = EARTH
REF_FRAME      = TEME
TIME_SYSTEM    = UTC
MEAN_ELEMENT_THEORY = SGP/SGP4

EPOCH          = 2025-12-07T06:00:04.999968
MEAN_MOTION    = 15.59232336
ECCENTRICITY   = .00018208
INCLINATION    = 42.9997
RA_OF_ASC_NODE = 153.3708
ARG_OF_PERICENTER = 268.5107
MEAN_ANOMALY   = 81.1983

EPHEMERIS_TYPE = 0
CLASSIFICATION_TYPE = U
NORAD_CAT_ID   = 66558
ELEMENT_SET_NO = 999
REV_AT_EPOCH   = 378
BSTAR          = -.28612745E-1
MEAN_MOTION_DOT = -.2022534E-1
MEAN_MOTION_DDOT = 0

CCSDS_OMM_VERS = 2.0
CREATION_DATE  = 
ORIGINATOR     = 

OBJECT_NAME    = STARLINK-35419
OBJECT_ID      = 2025-268C
CENTER_NAME    = EARTH
REF_FRAME      = TEME
TIME_SYSTEM    = UTC
MEAN_ELEMENT_THEORY = SGP/SGP4

EPOCH          = 2025-12-07T06:00:04.999968
MEAN_MOTION    = 15.59234068
ECCENTRICITY   = .00017659
INCLINATION    = 42.9998
RA_OF_ASC_NODE = 153.3665
ARG_OF_PERICENTER = 268.6978
MEAN_ANOMALY   = 82.9267

EPHEMERIS_TYPE = 0
CLASSIFICATION_TYPE = U
NORAD_CAT_ID   = 66559
ELEMENT_SET_NO = 999
REV_AT_EPOCH   = 378
BSTAR          = -.28623254E-1
MEAN_MOTION_DOT = -.2023258E-1
MEAN_MOTION_DDOT = 0

CCSDS_OMM_VERS = 2.0
CREATION_DATE  = 
ORIGINATOR     = 

OBJECT_NAME    = STARLINK-35411
OBJECT_ID      = 2025-268D
CENTER_NAME    = EARTH
REF_FRAME      = TEME
TIME_SYSTEM    = UTC
MEAN_ELEMENT_THEORY = SGP/SGP4

EPOCH          = 2025-12-07T06:00:04.999968
MEAN_MOTION    = 15.59239136
ECCENTRICITY   = .00018239
INCLINATION    = 42.9999
RA_OF_ASC_NODE = 153.3619
ARG_OF_PERICENTER = 266.4309
MEAN_ANOMALY   = 87.1084

EPHEMERIS_TYPE = 0
CLASSIFICATION_TYPE = U
NORAD_CAT_ID   = 66560
ELEMENT_SET_NO = 999
REV_AT_EPOCH   = 378
BSTAR          = -.28732622E-1
MEAN_MOTION_DOT = -.20304E-1
MEAN_MOTION_DDOT = 0

CCSDS_OMM_VERS = 2.0
CREATION_DATE  = 
ORIGINATOR     = 

OBJECT_NAME    = STARLINK-35305
OBJECT_ID      = 2025-268E
CENTER_NAME    = EARTH
REF_FRAME      = TEME
TIME_SYSTEM    = UTC
MEAN_ELEMENT_THEORY = SGP/SGP4

EPOCH          = 2025-12-07T06:00:04.999968
MEAN_MOTION    = 15.59233965
ECCENTRICITY   = .00017662
INCLINATION    = 43.0000
RA_OF_ASC_NODE = 153.3523
ARG_OF_PERICENTER = 270.3296
MEAN_ANOMALY   = 87.0463

EPHEMERIS_TYPE = 0
CLASSIFICATION_TYPE = U
NORAD_CAT_ID   = 66561
ELEMENT_SET_NO = 999
REV_AT_EPOCH   = 373
BSTAR          = -.28632859E-1
MEAN_MOTION_DOT = -.2023844E-1
MEAN_MOTION_DDOT = 0

CCSDS_OMM_VERS = 2.0
CREATION_DATE  = 
ORIGINATOR     = 

OBJECT_NAME    = STARLINK-35579
OBJECT_ID      = 2025-268F
CENTER_NAME    = EARTH
REF_FRAME      = TEME
TIME_SYSTEM    = UTC
MEAN_ELEMENT_THEORY = SGP/SGP4

EPOCH          = 2025-12-07T06:00:04.999968
MEAN_MOTION    = 15.59234913
ECCENTRICITY   = .00017332
INCLINATION    = 43.0000
RA_OF_ASC_NODE = 153.3563
ARG_OF_PERICENTER = 267.2051
MEAN_ANOMALY   = 88.2515

EPHEMERIS_TYPE = 0
CLASSIFICATION_TYPE = U
NORAD_CAT_ID   = 66562
ELEMENT_SET_NO = 999
REV_AT_EPOCH   = 378
BSTAR          = -.28608108E-1
MEAN_MOTION_DOT = -.2022355E-1
MEAN_MOTION_DDOT = 0

