CZ-2C R/B               
1 66548U 25266D   25341.31125560  .00017051  00000+0  53003-3 0  9995
2 66548  52.0567 357.1384 0084276 154.5442 205.9732 15.30009880  2788
SHIJIAN-28              
1 66549U 25277A   25334.75466579  .00006315  00000+0  62085-3 0  9997
2 66549  14.4344 275.4056 7300519 179.5026 182.3580  2.28019775    48
CZ-7A R/B               
1 66550U 25277B   25340.47637481  .01473319  16497-5  29639-2 0  9990
2 66550  14.4071 272.9582 7169465 183.2116 166.6906  2.49148263   188
UNKNOWN                 
1 66551U 25271AE  25336.66670139 -.01709685  00000+0 -74303-2 0  9993
2 66551  53.1571 236.7807 0000717 110.7411 313.9012 15.87051116  2624
GLOBAL-33               
1 66554U 25267A   25341.31619939  .00020158  00000+0  65573-3 0  9998
2 66554  42.0198  88.3000 0004912  13.8130 346.2841 15.31453171  2576
ELECTRON KICK STAGE R/B 
1 66555U 25267B   25340.59120075  .00037718  00000+0  11820-2 0  9991
2 66555  42.0184  92.3831 0007008   7.6662 352.4282 15.32375133  2467
STARLINK-35699          
1 66557U 25268A   25341.25005787 -.02025772  00000+0 -28661-1 0  9991
2 66557  42.9999 153.3756 0001789 270.6458  77.1424 15.59236222  3780
STARLINK-35695          
1 66558U 25268B   25341.25005787 -.02022534  00000+0 -28613-1 0  9992
2 66558  42.9997 153.3708 0001820 268.5107  81.1983 15.59232336  3786
STARLINK-35419          
1 66559U 25268C   25341.25005787 -.02023258  00000+0 -28623-1 0  9998
2 66559  42.9998 153.3665 0001765 268.6978  82.9267 15.59234068  3783
STARLINK-35411          
1 66560U 25268D   25341.25005787 -.02030400  00000+0 -28733-1 0  9999
2 66560  42.9999 153.3619 0001823 266.4309  87.1084 15.59239136  3789
STARLINK-35305          
1 66561U 25268E   25341.25005787 -.02023844  00000+0 -28633-1 0  9993
2 66561  43.0000 153.3523 0001766 270.3296  87.0463 15.59233965  3733
STARLINK-35579          
1 66562U 25268F   25341.25005787 -.02022355  00000+0 -28608-1 0  9992
2 66562  43.0000 153.3563 0001733 267.2051  88.2515 15.59234913  3786
